[
  {
    "name": "ROOTS UNLIMITED",
    "zipCode": "21223",
    "neighborhood": "Penrose/Fayette Street Outreach",
    "councilDistrict": "9",
    "policeDistrict": "WESTERN",
    "Location 1": "2148 VINE ST\nBaltimore, MD"
  },
  {
    "name": "ROPEWALK TAVERN",
    "zipCode": "21230",
    "neighborhood": "Federal Hill",
    "councilDistrict": "10",
    "policeDistrict": "SOUTHERN",
    "Location 1": "1209 CHARLES ST\nBaltimore, MD"
  },
  {
    "name": "ROSIE'S",
    "zipCode": "21223",
    "neighborhood": "Carrollton Ridge",
    "councilDistrict": "9",
    "policeDistrict": "SOUTHWESTERN",
    "Location 1": "482 BENTALOU ST\nBaltimore, MD"
  },
  {
    "name": "ROSITAS RESTAURANT",
    "zipCode": "21231",
    "neighborhood": "Fells Point",
    "councilDistrict": "1",
    "policeDistrict": "SOUTHEASTERN",
    "Location 1": "206 BROADWAY\nBaltimore, MD"
  },
  {
    "name": "ROYAL RESTAURANT",
    "zipCode": "21202",
    "neighborhood": "Downtown",
    "councilDistrict": "11",
    "policeDistrict": "CENTRAL",
    "Location 1": "206 LEXINGTON ST\nBaltimore, MD"
  },
  {
    "name": "ROYAL VILLAGE",
    "zipCode": "21220",
    "neighborhood": "Federal Hill",
    "councilDistrict": "10",
    "policeDistrict": "SOUTHERN",
    "Location 1": "1033 LIGHT ST\nBaltimore, MD"
  },
  {
    "name": "ROY'S EAST ATLANTIC I, LIMITED PARTNERSHIP",
    "zipCode": "21202",
    "neighborhood": "Inner Harbor",
    "councilDistrict": "1",
    "policeDistrict": "SOUTHEASTERN",
    "Location 1": "720 ALICEANNA ST\nBaltimore, MD"
  },
  {
    "name": "RUB BARBEQUE",
    "zipCode": "21230",
    "neighborhood": "Riverside",
    "councilDistrict": "10",
    "policeDistrict": "SOUTHERN",
    "Location 1": "1843 LIGHT STREET\nBaltimore, MD"
  },
  {
    "name": "RUBY TUESDAY",
    "zipCode": "21239",
    "neighborhood": "Loch Raven",
    "councilDistrict": "4",
    "policeDistrict": "NORTHEASTERN",
    "Location 1": "1728 NORTHERN PKWY\nBaltimore, MD"
  },
  {
    "name": "RUBY TUESDAY",
    "zipCode": "21218",
    "neighborhood": "Charles Village",
    "councilDistrict": "14",
    "policeDistrict": "NORTHERN",
    "Location 1": "3003 CHARLES ST\nBaltimore, MD"
  },
  {
    "name": "RUMOR BAR AND GRILL",
    "zipCode": "21205",
    "neighborhood": "McElderry Park",
    "councilDistrict": "13",
    "policeDistrict": "SOUTHEASTERN",
    "Location 1": "2600 MONUMENT ST\nBaltimore, MD"
  },
  {
    "name": "RUSSELL SERNOCKY AMERICAN LEGION POST #184",
    "zipCode": "21223",
    "neighborhood": "New Southwest/Mount Clare",
    "councilDistrict": "9",
    "policeDistrict": "SOUTHERN",
    "Location 1": "1410 PRATT ST\nBaltimore, MD"
  },
  {
    "name": "RUSTY SCUPPER",
    "zipCode": "21230",
    "neighborhood": "Federal Hill",
    "councilDistrict": "11",
    "policeDistrict": "CENTRAL",
    "Location 1": "402 KEY HWY\nBaltimore, MD"
  },
  {
    "name": "RUTH E'S PLACE",
    "zipCode": "21223",
    "neighborhood": "Millhill",
    "councilDistrict": "9",
    "policeDistrict": "SOUTHWESTERN",
    "Location 1": "2696 WILKENS Ave\nBaltimore, MD"
  },
  {
    "name": "RUTH'S CHRIS STEAK HOUSE",
    "zipCode": "21202",
    "neighborhood": "Downtown",
    "councilDistrict": "11",
    "policeDistrict": "CENTRAL",
    "Location 1": "600 WATER ST\nBaltimore, MD"
  },
  {
    "name": "RUTH'S CHRIS STEAK HOUSE",
    "zipCode": "21201",
    "neighborhood": "Inner Harbor",
    "councilDistrict": "11",
    "policeDistrict": "CENTRAL",
    "Location 1": "711 EASTERN AVE\nBaltimore, MD"
  },
  {
    "name": "RUTLAND BAR",
    "zipCode": "21213",
    "neighborhood": "Broadway East",
    "councilDistrict": "12",
    "policeDistrict": "EASTERN",
    "Location 1": "1508 RUTLAND AVE\nBaltimore, MD"
  },
  {
    "name": "RYAN'S DAUGHTER",
    "zipCode": "21212",
    "neighborhood": "Chinquapin Park-Belvedere",
    "councilDistrict": "4",
    "policeDistrict": "NORTHERN",
    "Location 1": "600 BELVEDERE AVE\nBaltimore, MD"
  },
  {
    "name": "RYLEIGH'S OYSTERS",
    "zipCode": "21230",
    "neighborhood": "Federal Hill",
    "councilDistrict": "10",
    "policeDistrict": "SOUTHERN",
    "Location 1": "36 CROSS ST\nBaltimore, MD"
  },
  {
    "name": "S.O.S BAR & LOUNGE",
    "zipCode": "21224",
    "neighborhood": "Baltimore-Linwood",
    "councilDistrict": "1",
    "policeDistrict": "SOUTHEASTERN",
    "Location 1": "2511 FAYETTE ST\nBaltimore, MD"
  },
  {
    "name": "SABATINO'S RESTAURANT",
    "zipCode": "21202",
    "neighborhood": "Little Italy",
    "councilDistrict": "1",
    "policeDistrict": "SOUTHEASTERN",
    "Location 1": "901 FAWN ST\nBaltimore, MD"
  },
  {
    "name": "saigon remembered restaurant",
    "zipCode": "21212",
    "neighborhood": "Mid-Govans",
    "councilDistrict": "4",
    "policeDistrict": "NORTHERN",
    "Location 1": "5857 york rd\nBaltimore, MD"
  },
  {
    "name": "SAINT BENEDICT BOOSTER CLUB",
    "zipCode": "21223",
    "neighborhood": "Millhill",
    "councilDistrict": "9",
    "policeDistrict": "SOUTHWESTERN",
    "Location 1": "2612 WILKENS AVE\nBaltimore, MD"
  },
  {
    "name": "SALSA RICO",
    "zipCode": "21210",
    "neighborhood": "Loyola/Notre Dame",
    "councilDistrict": "6",
    "policeDistrict": "NORTHERN",
    "Location 1": "4501 CHARLES ST\nBaltimore, MD"
  },
  {
    "name": "SALSARITA'S FRESH CANTINA",
    "zipCode": "21201",
    "neighborhood": "Downtown",
    "councilDistrict": "11",
    "policeDistrict": "CENTRAL",
    "Location 1": "324 BALTIMORE ST\nBaltimore, MD"
  },
  {
    "name": "SALT",
    "zipCode": "21231",
    "neighborhood": "Upper Fells Point",
    "councilDistrict": "1",
    "policeDistrict": "SOUTHEASTERN",
    "Location 1": "2127 PRATT ST\nBaltimore, MD"
  },
  {
    "name": "SAMMY'S TRATTORIA",
    "zipCode": "21201",
    "neighborhood": "Mid-Town Belvedere",
    "councilDistrict": "12",
    "policeDistrict": "CENTRAL",
    "Location 1": "1200 CHARLES ST\nBaltimore, MD"
  },
  {
    "name": "SAMOS RESTAURANT",
    "zipCode": "21224",
    "neighborhood": "Greektown",
    "councilDistrict": "2",
    "policeDistrict": "SOUTHEASTERN",
    "Location 1": "600 OLDHAM ST\nBaltimore, MD"
  },
  {
    "name": "SAMPSON'S RESTAURANT",
    "zipCode": "21223",
    "neighborhood": "Poppleton",
    "councilDistrict": "11",
    "policeDistrict": "WESTERN",
    "Location 1": "946 FAYETTE ST\nBaltimore, MD"
  },
  {
    "name": "SAM'S BAGELS",
    "zipCode": "21230",
    "neighborhood": "Federal Hill",
    "councilDistrict": "10",
    "policeDistrict": "SOUTHERN",
    "Location 1": "915 LIGHT ST\nBaltimore, MD"
  },
  {
    "name": "SAND MAN",
    "zipCode": "21224",
    "neighborhood": "Canton",
    "councilDistrict": "1",
    "policeDistrict": "SOUTHEASTERN",
    "Location 1": "708 BAYLIS ST\nBaltimore, MD"
  },
  {
    "name": "SANDPIPER",
    "zipCode": "21223",
    "neighborhood": "Poppleton",
    "councilDistrict": "9",
    "policeDistrict": "WESTERN",
    "Location 1": "1126 BALTIMORE ST\nBaltimore, MD"
  },
  {
    "name": "SANDY'S CAFE",
    "zipCode": "21224",
    "neighborhood": "Baltimore Highlands",
    "councilDistrict": "1",
    "policeDistrict": "SOUTHEASTERN",
    "Location 1": "3601 PULASKI HWY\nBaltimore, MD"
  },
  {
    "name": "SANTA ANA RESTURANT",
    "zipCode": "21231",
    "neighborhood": "Fells Point",
    "councilDistrict": "1",
    "policeDistrict": "SOUTHEASTERN",
    "Location 1": "246 BROADWAY\nBaltimore, MD"
  },
  {
    "name": "SBARRO INC.",
    "zipCode": "21202",
    "neighborhood": "Inner Harbor",
    "councilDistrict": "11",
    "policeDistrict": "CENTRAL",
    "Location 1": "200 PRATT ST\nBaltimore, MD"
  },
  {
    "name": "SBARRO ITALIAN EATERY",
    "zipCode": "21224",
    "neighborhood": "Pulaski Industrial Area",
    "councilDistrict": "1",
    "policeDistrict": "SOUTHEASTERN",
    "Location 1": "5625 O DONNELL ST\nBaltimore, MD"
  },
  {
    "name": "SCHAEFER'S BAR & RESTAURANT",
    "zipCode": "21230",
    "neighborhood": "SBIC",
    "councilDistrict": "10",
    "policeDistrict": "SOUTHERN",
    "Location 1": "121 RANDALL ST\nBaltimore, MD"
  },
  {
    "name": "SCORES",
    "zipCode": "21202",
    "neighborhood": "Penn-Fallsway",
    "councilDistrict": "11",
    "policeDistrict": "EASTERN",
    "Location 1": "615 FALLSWAY\nBaltimore, MD"
  },
  {
    "name": "serdenes restaurant",
    "zipCode": "21205",
    "neighborhood": "Pulaski Industrial Area",
    "councilDistrict": "2",
    "policeDistrict": "SOUTHEASTERN",
    "Location 1": "5603 pulaski hwy\nBaltimore, MD"
  },
  {
    "name": "S'GHETTI EDDIE'S",
    "zipCode": "21210",
    "neighborhood": "Evergreen",
    "councilDistrict": "6",
    "policeDistrict": "NORTHERN",
    "Location 1": "414 COLD SPRING LN\nBaltimore, MD"
  },
  {
    "name": "SHAFFERS",
    "zipCode": "21230",
    "neighborhood": "Washington Village",
    "councilDistrict": "9",
    "policeDistrict": "SOUTHERN",
    "Location 1": "1184 CLEVELAND ST\nBaltimore, MD"
  },
  {
    "name": "SHAHRAZAD'S INTERNATIONAL NEO-SOUL",
    "zipCode": "21230",
    "neighborhood": "Washington Village",
    "councilDistrict": "11",
    "policeDistrict": "SOUTHERN",
    "Location 1": "771 WASHINGTON BLVD\nBaltimore, MD"
  },
  {
    "name": "SHANE'S SANDWICH SHOP",
    "zipCode": "21201",
    "neighborhood": "Downtown",
    "councilDistrict": "11",
    "policeDistrict": "CENTRAL",
    "Location 1": "142 FAYETTE ST\nBaltimore, MD"
  },
  {
    "name": "SHARKY'S BAR & GRILL",
    "zipCode": "21224",
    "neighborhood": "Canton",
    "councilDistrict": "1",
    "policeDistrict": "SOUTHEASTERN",
    "Location 1": "2819 EASTERN AVE\nBaltimore, MD"
  },
  {
    "name": "SHED ROW",
    "zipCode": "21231",
    "neighborhood": "Upper Fells Point",
    "councilDistrict": "1",
    "policeDistrict": "SOUTHEASTERN",
    "Location 1": "1901 GOUGH ST\nBaltimore, MD"
  },
  {
    "name": "SHELDON'S LOUNGE",
    "zipCode": "21206",
    "neighborhood": "Belair-Edison",
    "councilDistrict": "13",
    "policeDistrict": "NORTHEASTERN",
    "Location 1": "4325 BELAIR RD\nBaltimore, MD"
  },
  {
    "name": "SHERATON BALTIMORE CITY CTR HOTEL (BANQUET)",
    "zipCode": "21201",
    "neighborhood": "Downtown",
    "councilDistrict": "11",
    "policeDistrict": "CENTRAL",
    "Location 1": "101 FAYETTE ST\nBaltimore, MD"
  },
  {
    "name": "SHERATON INNER HARBOR HOTEL - ORIOLES GRILL",
    "zipCode": "21201",
    "neighborhood": "Inner Harbor",
    "councilDistrict": "11",
    "policeDistrict": "CENTRAL",
    "Location 1": "300 CHARLES ST\nBaltimore, MD"
  },
  {
    "name": "SHERATON INNER HARBOR HOTEL -EMPLOYEE'S CAFETERIA",
    "zipCode": "21201",
    "neighborhood": "Inner Harbor",
    "councilDistrict": "11",
    "policeDistrict": "CENTRAL",
    "Location 1": "300 CHARLES ST\nBaltimore, MD"
  },
  {
    "name": "SHERATON INNER HARBOR HOTEL-MAIN KITCHEN",
    "zipCode": "21201",
    "neighborhood": "Inner Harbor",
    "councilDistrict": "11",
    "policeDistrict": "CENTRAL",
    "Location 1": "300 CHARLES ST\nBaltimore, MD"
  },
  {
    "name": "SHERRIES",
    "zipCode": "21224",
    "neighborhood": "Baltimore Highlands",
    "councilDistrict": "2",
    "policeDistrict": "SOUTHEASTERN",
    "Location 1": "3821 PULASKI HWY\nBaltimore, MD"
  },
  {
    "name": "SHERRY'S PLACE",
    "zipCode": "21231",
    "neighborhood": "Fells Point",
    "councilDistrict": "1",
    "policeDistrict": "SOUTHEASTERN",
    "Location 1": "238 BROADWAY\nBaltimore, MD"
  },
  {
    "name": "SHIRLEY'S  HONEY HOLE",
    "zipCode": "21213",
    "neighborhood": "Broadway East",
    "councilDistrict": "13",
    "policeDistrict": "EASTERN",
    "Location 1": "2300 OLIVER ST\nBaltimore, MD"
  },
  {
    "name": "SHORTY'S",
    "zipCode": "21224",
    "neighborhood": "Canton",
    "councilDistrict": "1",
    "policeDistrict": "SOUTHEASTERN",
    "Location 1": "3301 FOSTER AVE\nBaltimore, MD"
  },
  {
    "name": "SHUCKERS OF FELLS POINT",
    "zipCode": "21231",
    "neighborhood": "Fells Point",
    "councilDistrict": "1",
    "policeDistrict": "SOUTHEASTERN",
    "Location 1": "1629 THAMES ST\nBaltimore, MD"
  },
  {
    "name": "SHULA'S @ SHERATON BALTIMORE CITY CTR HOTEL",
    "zipCode": "21201",
    "neighborhood": "Downtown",
    "councilDistrict": "11",
    "policeDistrict": "CENTRAL",
    "Location 1": "101 FAYETTE ST\nBaltimore, MD"
  },
  {
    "name": "SIDE  BAR  (218-220)",
    "zipCode": "21202",
    "neighborhood": "Downtown",
    "councilDistrict": "11",
    "policeDistrict": "CENTRAL",
    "Location 1": "218 lexington ST\nBaltimore, MD"
  },
  {
    "name": "SID'S TAVERN",
    "zipCode": "21230",
    "neighborhood": "Washington Village",
    "councilDistrict": "9",
    "policeDistrict": "SOUTHERN",
    "Location 1": "1100 WASHINGTON BLVD\nBaltimore, MD"
  },
  {
    "name": "SIGN OF THE TIMES  (137-39)",
    "zipCode": "21224",
    "neighborhood": "Baltimore-Linwood",
    "councilDistrict": "1",
    "policeDistrict": "SOUTHEASTERN",
    "Location 1": "137 BELNORD AVE\nBaltimore, MD"
  },
  {
    "name": "SIG'S BAR",
    "zipCode": "21231",
    "neighborhood": "Fells Point",
    "councilDistrict": "1",
    "policeDistrict": "SOUTHEASTERN",
    "Location 1": "628 BROADWAY\nBaltimore, MD"
  },
  {
    "name": "SILK ROAD EXPRESS-MATTIN CENTER  J H U",
    "zipCode": "21218",
    "neighborhood": "Charles Village",
    "councilDistrict": "14",
    "policeDistrict": "NORTHERN",
    "Location 1": "3400 CHARLES ST\nBaltimore, MD"
  },
  {
    "name": "SILK'S TAVERN",
    "zipCode": "21224",
    "neighborhood": "Canton",
    "councilDistrict": "1",
    "policeDistrict": "SOUTHEASTERN",
    "Location 1": "2641 HUDSON ST\nBaltimore, MD"
  },
  {
    "name": "SILVER STAR RESTAURANT/CARRYOUT",
    "zipCode": "21218",
    "neighborhood": "East Baltimore Midway",
    "councilDistrict": "12",
    "policeDistrict": "EASTERN",
    "Location 1": "801 BONAPARTE AVE\nBaltimore, MD"
  },
  {
    "name": "SIP & BITE RESTAURANT",
    "zipCode": "21231",
    "neighborhood": "Canton",
    "councilDistrict": "1",
    "policeDistrict": "SOUTHEASTERN",
    "Location 1": "2200 BOSTON ST\nBaltimore, MD"
  },
  {
    "name": "SIR'S DELI",
    "zipCode": "21202",
    "neighborhood": "Mid-Town Belvedere",
    "councilDistrict": "12",
    "policeDistrict": "CENTRAL",
    "Location 1": "1101 ST PAUL #101 ST\nBaltimore, MD"
  },
  {
    "name": "SISSON STREET SUBWAY",
    "zipCode": "21211",
    "neighborhood": "Remington",
    "councilDistrict": "7",
    "policeDistrict": "NORTHERN",
    "Location 1": "2725 SISSON STREET\nBaltimore, MD"
  },
  {
    "name": "SISTA'  SANDRA'S INTERNATIONAL CUSINE",
    "zipCode": "21215",
    "neighborhood": "Reisterstown Station",
    "councilDistrict": "5",
    "policeDistrict": "NORTHWESTERN",
    "Location 1": "6212 REISTERSTOWN RD\nBaltimore, MD"
  },
  {
    "name": "SKEETER'S",
    "zipCode": "21230",
    "neighborhood": "Morrell Park",
    "councilDistrict": "10",
    "policeDistrict": "SOUTHWESTERN",
    "Location 1": "2506 WASHINGTON BLVD\nBaltimore, MD"
  },
  {
    "name": "SKY LOUNGE/ TANGO TAPAS",
    "zipCode": "21230",
    "neighborhood": "Federal Hill",
    "councilDistrict": "10",
    "policeDistrict": "SOUTHERN",
    "Location 1": "1041 MARSHALL ST\nBaltimore, MD"
  },
  {
    "name": "SKYBOX BAR & GRILL",
    "zipCode": "21230",
    "neighborhood": "Riverside",
    "councilDistrict": "10",
    "policeDistrict": "SOUTHERN",
    "Location 1": "823 FORT AVE\nBaltimore, MD"
  },
  {
    "name": "SLAINTE IRISH PUB & RESTAURANT",
    "zipCode": "21231",
    "neighborhood": "Fells Point",
    "councilDistrict": "1",
    "policeDistrict": "SOUTHEASTERN",
    "Location 1": "1700 THAMES ST\nBaltimore, MD"
  },
  {
    "name": "SLIDERS BAR & GRILL",
    "zipCode": "21230",
    "neighborhood": "Inner Harbor",
    "councilDistrict": "11",
    "policeDistrict": "SOUTHERN",
    "Location 1": "504 WASHINGTON BLVD\nBaltimore, MD"
  },
  {
    "name": "SLIM ACE OF CLUB",
    "zipCode": "21206",
    "neighborhood": "Belair-Edison",
    "councilDistrict": "13",
    "policeDistrict": "NORTHEASTERN",
    "Location 1": "4200 BELAIR RD\nBaltimore, MD"
  },
  {
    "name": "SLY FOX PUB",
    "zipCode": "21230",
    "neighborhood": "Riverside",
    "councilDistrict": "10",
    "policeDistrict": "SOUTHERN",
    "Location 1": "554 FORT AVE\nBaltimore, MD"
  },
  {
    "name": "SMEDLY'S",
    "zipCode": "21231",
    "neighborhood": "Fells Point",
    "councilDistrict": "1",
    "policeDistrict": "SOUTHEASTERN",
    "Location 1": "600 WOLFE ST\nBaltimore, MD"
  },
  {
    "name": "smiley's tavern",
    "zipCode": "21223",
    "neighborhood": "New Southwest/Mount Clare",
    "councilDistrict": "9",
    "policeDistrict": "SOUTHERN",
    "Location 1": "1525 RAMSAY ST\nBaltimore, MD"
  },
  {
    "name": "SMITH PLACE",
    "zipCode": "21218",
    "neighborhood": "East Baltimore Midway",
    "councilDistrict": "12",
    "policeDistrict": "EASTERN",
    "Location 1": "2006 HARFORD RD\nBaltimore, MD"
  },
  {
    "name": "SMITTIE'S BAR & LOUNGE",
    "zipCode": "21216",
    "neighborhood": "Coppin Heights/Ash-Co-East",
    "councilDistrict": "7",
    "policeDistrict": "WESTERN",
    "Location 1": "1660 WARWICK AVE\nBaltimore, MD"
  },
  {
    "name": "SOBO CAFE'  (6-8 W. CROSS ST.)",
    "zipCode": "21230",
    "neighborhood": "Federal Hill",
    "councilDistrict": "10",
    "policeDistrict": "SOUTHERN",
    "Location 1": "6 CROSS ST\nBaltimore, MD"
  },
  {
    "name": "SODEXHO  sunpapers",
    "zipCode": "21225",
    "neighborhood": "Port Covington",
    "councilDistrict": "10",
    "policeDistrict": "SOUTHERN",
    "Location 1": "300 CROMWELL ST\nBaltimore, MD"
  },
  {
    "name": "SODEXHO MANAGEMENT, INC.",
    "zipCode": "21230",
    "neighborhood": "Carroll - Camden Industrial Area",
    "councilDistrict": "9",
    "policeDistrict": "SOUTHERN",
    "Location 1": "1800 WASHINGTON BLVD\nBaltimore, MD"
  },
  {
    "name": "SODEXHO MANAGEMENT. INC",
    "zipCode": "21202",
    "neighborhood": "Mount Vernon",
    "councilDistrict": "11",
    "policeDistrict": "CENTRAL",
    "Location 1": "501 CALVERT ST\nBaltimore, MD"
  },
  {
    "name": "SODEXHO/ FEDERAL RESERVE BANK",
    "zipCode": "21201",
    "neighborhood": "Otterbein",
    "councilDistrict": "11",
    "policeDistrict": "SOUTHERN",
    "Location 1": "502 SHARP ST\nBaltimore, MD"
  },
  {
    "name": "SOFI'S CREPES",
    "zipCode": "21202",
    "neighborhood": "Downtown",
    "councilDistrict": "11",
    "policeDistrict": "CENTRAL",
    "Location 1": "333 charles ST\nBaltimore, MD"
  },
  {
    "name": "SONAR",
    "zipCode": "21202",
    "neighborhood": "Downtown",
    "councilDistrict": "11",
    "policeDistrict": "CENTRAL",
    "Location 1": "407 SARATOGA ST\nBaltimore, MD"
  },
  {
    "name": "SON-SON LIQUOR & TAVERN",
    "zipCode": "21201",
    "neighborhood": "Downtown",
    "councilDistrict": "11",
    "policeDistrict": "CENTRAL",
    "Location 1": "308 EUTAW ST\nBaltimore, MD"
  },
  {
    "name": "SOTTO SOPRA",
    "zipCode": "21201",
    "neighborhood": "Downtown",
    "councilDistrict": "11",
    "policeDistrict": "CENTRAL",
    "Location 1": "405 CHARLES ST\nBaltimore, MD"
  },
  {
    "name": "SOUL SOURCE",
    "zipCode": "21223",
    "neighborhood": "Midtown-Edmondson",
    "councilDistrict": "9",
    "policeDistrict": "WESTERN",
    "Location 1": "2101 EDMONDSON AVE\nBaltimore, MD"
  },
  {
    "name": "SOUP'S ON BALTIMORE",
    "zipCode": "21201",
    "neighborhood": "Mid-Town Belvedere",
    "councilDistrict": "11",
    "policeDistrict": "CENTRAL",
    "Location 1": "11 PRESTON STREET\nBaltimore, MD"
  },
  {
    "name": "SOUTHERN ACCENTS",
    "zipCode": "21231",
    "neighborhood": "Fells Point",
    "councilDistrict": "1",
    "policeDistrict": "SOUTHEASTERN",
    "Location 1": "814 BROADWAY\nBaltimore, MD"
  },
  {
    "name": "SOUTHSIDE SALOON",
    "zipCode": "21230",
    "neighborhood": "Riverside",
    "councilDistrict": "10",
    "policeDistrict": "SOUTHERN",
    "Location 1": "430 FORT AVE\nBaltimore, MD"
  },
  {
    "name": "SOUVLAKI  PLACE",
    "zipCode": "21224",
    "neighborhood": "Greektown",
    "councilDistrict": "2",
    "policeDistrict": "SOUTHEASTERN",
    "Location 1": "4706 EASTERN ave\nBaltimore, MD"
  },
  {
    "name": "SPARTAN PIZZERIA RESTAURANT",
    "zipCode": "21224",
    "neighborhood": "Highlandtown",
    "councilDistrict": "2",
    "policeDistrict": "SOUTHEASTERN",
    "Location 1": "3600 EASTERN AVE\nBaltimore, MD"
  },
  {
    "name": "SPEAKEASY SALOON",
    "zipCode": "21224",
    "neighborhood": "Canton",
    "councilDistrict": "1",
    "policeDistrict": "SOUTHEASTERN",
    "Location 1": "2840 O DONNELL ST\nBaltimore, MD"
  },
  {
    "name": "SPECTRUM CATERING",
    "zipCode": "21201",
    "neighborhood": "Downtown",
    "councilDistrict": "11",
    "policeDistrict": "CENTRAL",
    "Location 1": "12 EUTAW ST\nBaltimore, MD"
  },
  {
    "name": "SPIRITS & MORE",
    "zipCode": "21223",
    "neighborhood": "Penrose/Fayette Street Outreach",
    "councilDistrict": "9",
    "policeDistrict": "WESTERN",
    "Location 1": "255 PAYSON ST\nBaltimore, MD"
  },
  {
    "name": "SPIRITS TAVERN",
    "zipCode": "21231",
    "neighborhood": "Upper Fells Point",
    "councilDistrict": "1",
    "policeDistrict": "SOUTHEASTERN",
    "Location 1": "1901 BANK ST\nBaltimore, MD"
  },
  {
    "name": "SPIRITS WEST,INC",
    "zipCode": "21223",
    "neighborhood": "Millhill",
    "councilDistrict": "9",
    "policeDistrict": "SOUTHWESTERN",
    "Location 1": "2601 WILKENS AVE\nBaltimore, MD"
  },
  {
    "name": "SPOONS COFFEE",
    "zipCode": "21230",
    "neighborhood": "Federal Hill",
    "councilDistrict": "10",
    "policeDistrict": "SOUTHERN",
    "Location 1": "24 CROSS ST\nBaltimore, MD"
  },
  {
    "name": "SPORTS CAFE",
    "zipCode": "21224",
    "neighborhood": "Canton",
    "councilDistrict": "1",
    "policeDistrict": "SOUTHEASTERN",
    "Location 1": "1224 CLINTON ST\nBaltimore, MD"
  },
  {
    "name": "SPORTS PALACE",
    "zipCode": "21215",
    "neighborhood": "Pimlico Good Neighbors",
    "councilDistrict": "5",
    "policeDistrict": "NORTHWESTERN",
    "Location 1": "Hayward Ave\nBaltimore, MD"
  },
  {
    "name": "SPORTSMAN LOUNGE BAR",
    "zipCode": "21207",
    "neighborhood": "Howard Park",
    "councilDistrict": "5",
    "policeDistrict": "NORTHWESTERN",
    "Location 1": "4725 GWYNN OAK AVE\nBaltimore, MD"
  },
  {
    "name": "SPORTSMAN SPOT",
    "zipCode": "21224",
    "neighborhood": "Greektown",
    "councilDistrict": "2",
    "policeDistrict": "SOUTHEASTERN",
    "Location 1": "501 LEHIGH ST\nBaltimore, MD"
  },
  {
    "name": "SPORTSTERS, INC.",
    "zipCode": "21223",
    "neighborhood": "Carrollton Ridge",
    "councilDistrict": "9",
    "policeDistrict": "SOUTHWESTERN",
    "Location 1": "2148 WILKENS AVE\nBaltimore, MD"
  },
  {
    "name": "ST. MARY'S (118-120)",
    "zipCode": "21218",
    "neighborhood": "Charles Village",
    "councilDistrict": "7",
    "policeDistrict": "NORTHERN",
    "Location 1": "118 25TH ST\nBaltimore, MD"
  },
  {
    "name": "STADIUM LOUNGE",
    "zipCode": "21218",
    "neighborhood": "Oakenshawe",
    "councilDistrict": "14",
    "policeDistrict": "NORTHERN",
    "Location 1": "3351 53 GREENMOUNT AVE\nBaltimore, MD"
  },
  {
    "name": "STAGE DOOR/ENCORE",
    "zipCode": "21202",
    "neighborhood": "Downtown",
    "councilDistrict": "11",
    "policeDistrict": "CENTRAL",
    "Location 1": "5 COMMERCE ST\nBaltimore, MD"
  },
  {
    "name": "STALKING HORSE",
    "zipCode": "21230",
    "neighborhood": "Federal Hill",
    "councilDistrict": "10",
    "policeDistrict": "SOUTHERN",
    "Location 1": "26 CROSS ST\nBaltimore, MD"
  },
  {
    "name": "STANLEY'S DRIVE INN",
    "zipCode": "21205",
    "neighborhood": "Orangeville",
    "councilDistrict": "2",
    "policeDistrict": "EASTERN",
    "Location 1": "4215 MONUMENT ST\nBaltimore, MD"
  },
  {
    "name": "STARBUCKS",
    "zipCode": "21202",
    "neighborhood": "Inner Harbor",
    "councilDistrict": "11",
    "policeDistrict": "CENTRAL",
    "Location 1": "301 LIGHT ST\nBaltimore, MD"
  },
  {
    "name": "STARBUCKS  COFFEE #746",
    "zipCode": "21209",
    "neighborhood": "Sabina-Mattfeldt",
    "councilDistrict": "5",
    "policeDistrict": "NORTHERN",
    "Location 1": "1340 SMITH AVE\nBaltimore, MD"
  },
  {
    "name": "STARBUCKS COFFEE",
    "zipCode": "21224",
    "neighborhood": "Canton",
    "councilDistrict": "1",
    "policeDistrict": "SOUTHEASTERN",
    "Location 1": "2400 BOSTON ST\nBaltimore, MD"
  },
  {
    "name": "STARBUCKS COFFEE",
    "zipCode": "21218",
    "neighborhood": "Charles Village",
    "councilDistrict": "14",
    "policeDistrict": "NORTHERN",
    "Location 1": "3201 ST PAUL ST\nBaltimore, MD"
  },
  {
    "name": "STARBUCKS COFFEE COMPANY",
    "zipCode": "21201",
    "neighborhood": "Downtown",
    "councilDistrict": "11",
    "policeDistrict": "CENTRAL",
    "Location 1": "1 EUTAW ST\nBaltimore, MD"
  },
  {
    "name": "STARBUCKS CORPORATION",
    "zipCode": "21201",
    "neighborhood": "Mid-Town Belvedere",
    "councilDistrict": "12",
    "policeDistrict": "CENTRAL",
    "Location 1": "1209 CHARLES ST\nBaltimore, MD"
  },
  {
    "name": "STARLITE LOUNGE",
    "zipCode": "21217",
    "neighborhood": "Shipley Hill",
    "councilDistrict": "9",
    "policeDistrict": "SOUTHWESTERN",
    "Location 1": "2701 FAIRMOUNT AVE\nBaltimore, MD"
  },
  {
    "name": "STARTERS TAVERN",
    "zipCode": "21230",
    "neighborhood": "Cherry Hill",
    "councilDistrict": "10",
    "policeDistrict": "SOUTHERN",
    "Location 1": "3311 ANNAPOLIS RD\nBaltimore, MD"
  },
  {
    "name": "STATION NORTH ARTS CAF",
    "zipCode": "21201",
    "neighborhood": "Charles North",
    "councilDistrict": "12",
    "policeDistrict": "CENTRAL",
    "Location 1": "1816 CHARLES ST\nBaltimore, MD"
  },
  {
    "name": "STEELWORKERS HOLDING COMPANY",
    "zipCode": "21224",
    "neighborhood": "Pulaski Industrial Area",
    "councilDistrict": "1",
    "policeDistrict": "SOUTHEASTERN",
    "Location 1": "540 DUNDALK AVE\nBaltimore, MD"
  },
  {
    "name": "STEEPLE CHASE II",
    "zipCode": "21213",
    "neighborhood": "Biddle Street",
    "councilDistrict": "13",
    "policeDistrict": "EASTERN",
    "Location 1": "2401 CHASE ST\nBaltimore, MD"
  },
  {
    "name": "STOCKMARKET BAR",
    "zipCode": "21225",
    "neighborhood": "Brooklyn",
    "councilDistrict": "10",
    "policeDistrict": "SOUTHERN",
    "Location 1": "3538 HANOVER ST\nBaltimore, MD"
  },
  {
    "name": "SUBWAY",
    "zipCode": "21213",
    "neighborhood": "Oliver",
    "councilDistrict": "12",
    "policeDistrict": "EASTERN",
    "Location 1": "1400 NORTH AVE\nBaltimore, MD"
  },
  {
    "name": "SUBWAY",
    "zipCode": "21251",
    "neighborhood": "Stonewood-Pentwood-Winston",
    "councilDistrict": "3",
    "policeDistrict": "NORTHEASTERN",
    "Location 1": "1700 COLDSPRING LN\nBaltimore, MD"
  },
  {
    "name": "subway",
    "zipCode": "21202",
    "neighborhood": "Downtown",
    "councilDistrict": "11",
    "policeDistrict": "CENTRAL",
    "Location 1": "200 lexington st\nBaltimore, MD"
  },
  {
    "name": "SUBWAY",
    "zipCode": "21230",
    "neighborhood": "Lakeland",
    "councilDistrict": "10",
    "policeDistrict": "SOUTHERN",
    "Location 1": "2149 PATAPSCO AVE\nBaltimore, MD"
  },
  {
    "name": "SUBWAY",
    "zipCode": "21202",
    "neighborhood": "Downtown",
    "councilDistrict": "11",
    "policeDistrict": "CENTRAL",
    "Location 1": "423 BALTIMORE ST\nBaltimore, MD"
  },
  {
    "name": "SUBWAY",
    "zipCode": "21287",
    "neighborhood": "Dunbar-Broadway",
    "councilDistrict": "13",
    "policeDistrict": "EASTERN",
    "Location 1": "600 WOLFE ST\nBaltimore, MD"
  },
  {
    "name": "SUBWAY",
    "zipCode": "21229",
    "neighborhood": "Violetville",
    "councilDistrict": "8",
    "policeDistrict": "SOUTHWESTERN",
    "Location 1": "900 CATON AVE\nBaltimore, MD"
  },
  {
    "name": "SUBWAY  RESTAURANT",
    "zipCode": "21231",
    "neighborhood": "Fells Point",
    "councilDistrict": "1",
    "policeDistrict": "SOUTHEASTERN",
    "Location 1": "632 BROADWAY\nBaltimore, MD"
  },
  {
    "name": "SUBWAY 1301 N. CHARLES ST",
    "zipCode": "21201",
    "neighborhood": "Mid-Town Belvedere",
    "councilDistrict": "12",
    "policeDistrict": "CENTRAL",
    "Location 1": "1301 CHARLES ST\nBaltimore, MD"
  },
  {
    "name": "SUGAR HILL TAVERN & PKG.",
    "zipCode": "21217",
    "neighborhood": "Penn North",
    "councilDistrict": "11",
    "policeDistrict": "WESTERN",
    "Location 1": "2361 DRUID HILL AVE\nBaltimore, MD"
  },
  {
    "name": "SUN FLOWER DELI",
    "zipCode": "21218",
    "neighborhood": "Charles Village",
    "councilDistrict": "12",
    "policeDistrict": "NORTHERN",
    "Location 1": "2436 CHARLES ST\nBaltimore, MD"
  },
  {
    "name": "SUN HING CHINESE FOOD CARRYOUT",
    "zipCode": "21230",
    "neighborhood": "SBIC",
    "councilDistrict": "10",
    "policeDistrict": "SOUTHERN",
    "Location 1": "1451 LIGHT ST\nBaltimore, MD"
  },
  {
    "name": "SUNLIGHT LOUNGE",
    "zipCode": "21231",
    "neighborhood": "Fells Point",
    "councilDistrict": "1",
    "policeDistrict": "SOUTHEASTERN",
    "Location 1": "1713 EASTERN AVE\nBaltimore, MD"
  },
  {
    "name": "SURN-N-JOE\"S",
    "zipCode": "21210",
    "neighborhood": "Loyola/Notre Dame",
    "councilDistrict": "6",
    "policeDistrict": "NORTHERN",
    "Location 1": "4501 CHARLES ST\nBaltimore, MD"
  },
  {
    "name": "SURVIVOR'S SPORTS BAR (606-08)",
    "zipCode": "21225",
    "neighborhood": "Brooklyn",
    "councilDistrict": "10",
    "policeDistrict": "SOUTHERN",
    "Location 1": "606 PATAPSCO AVE\nBaltimore, MD"
  },
  {
    "name": "SUSHI-SAN RESTAURANT",
    "zipCode": "21224",
    "neighborhood": "Canton",
    "councilDistrict": "1",
    "policeDistrict": "SOUTHEASTERN",
    "Location 1": "2748 LIGHTHOUSE POINT\nBaltimore, MD"
  },
  {
    "name": "SUZIE' SOBA",
    "zipCode": "21202",
    "neighborhood": "Downtown",
    "councilDistrict": "11",
    "policeDistrict": "CENTRAL",
    "Location 1": "7 CALVERT ST\nBaltimore, MD"
  },
  {
    "name": "SUZIE'S SOBA",
    "zipCode": "21211",
    "neighborhood": "Hampden",
    "councilDistrict": "7",
    "policeDistrict": "NORTHERN",
    "Location 1": "1009 36TH ST\nBaltimore, MD"
  },
  {
    "name": "SWEET MELON CAF",
    "zipCode": "21202",
    "neighborhood": "Downtown",
    "councilDistrict": "11",
    "policeDistrict": "CENTRAL",
    "Location 1": "111 CHARLES ST\nBaltimore, MD"
  },
  {
    "name": "SWEET RETREAT CAF",
    "zipCode": "21218",
    "neighborhood": "Charles Village",
    "councilDistrict": "14",
    "policeDistrict": "NORTHERN",
    "Location 1": "3215 CHARLES ST\nBaltimore, MD"
  },
  {
    "name": "SZE-CHUAN RESTAURANT",
    "zipCode": "21230",
    "neighborhood": "Federal Hill",
    "councilDistrict": "10",
    "policeDistrict": "SOUTHERN",
    "Location 1": "1125 CHARLES ST\nBaltimore, MD"
  },
  {
    "name": "T N C. INC. (4106-4108)",
    "zipCode": "21229",
    "neighborhood": "Irvington",
    "councilDistrict": "8",
    "policeDistrict": "SOUTHWESTERN",
    "Location 1": "4106 FREDERICK AVE\nBaltimore, MD"
  },
  {
    "name": "T.D.F. CORPORATION",
    "zipCode": "21229",
    "neighborhood": "Violetville",
    "councilDistrict": "8",
    "policeDistrict": "SOUTHWESTERN",
    "Location 1": "1401 BLOOMFIELD AVE\nBaltimore, MD"
  },
  {
    "name": "TABRIZI'S",
    "zipCode": "21230",
    "neighborhood": "Inner Harbor",
    "councilDistrict": "10",
    "policeDistrict": "SOUTHERN",
    "Location 1": "500 HARBORVIEW DR\nBaltimore, MD"
  },
  {
    "name": "TACO BELL",
    "zipCode": "21224",
    "neighborhood": "Ellwood Park/Monument",
    "councilDistrict": "1",
    "policeDistrict": "SOUTHEASTERN",
    "Location 1": "3319 PULASKI HWY\nBaltimore, MD"
  },
  {
    "name": "TACO BELL & LONG JOHN SILVERS",
    "zipCode": "21230",
    "neighborhood": "Lakeland",
    "councilDistrict": "10",
    "policeDistrict": "SOUTHERN",
    "Location 1": "3110 HOLLINS FERRY RD\nBaltimore, MD"
  },
  {
    "name": "TACO FIESTA",
    "zipCode": "21202",
    "neighborhood": "Inner Harbor",
    "councilDistrict": "1",
    "policeDistrict": "SOUTHEASTERN",
    "Location 1": "618 EXETER ST\nBaltimore, MD"
  },
  {
    "name": "TAKI'S PIZZA CARRYOUT RESTAURANT",
    "zipCode": "21231",
    "neighborhood": "Fells Point",
    "councilDistrict": "1",
    "policeDistrict": "SOUTHEASTERN",
    "Location 1": "527 BROADWAY\nBaltimore, MD"
  },
  {
    "name": "TALAY THAI GRILLE",
    "zipCode": "21231",
    "neighborhood": "Fells Point",
    "councilDistrict": "1",
    "policeDistrict": "SOUTHEASTERN",
    "Location 1": "1911 ALICEANNA ST\nBaltimore, MD"
  },
  {
    "name": "TALKING HEAD CLUB",
    "zipCode": "21202",
    "neighborhood": "Downtown",
    "councilDistrict": "11",
    "policeDistrict": "CENTRAL",
    "Location 1": "203 DAVIS ST\nBaltimore, MD"
  },
  {
    "name": "TAMBER'S",
    "zipCode": "21218",
    "neighborhood": "Charles Village",
    "councilDistrict": "14",
    "policeDistrict": "NORTHERN",
    "Location 1": "3327 ST PAUL ST\nBaltimore, MD"
  },
  {
    "name": "TAM-TAM",
    "zipCode": "21212",
    "neighborhood": "Mid-Govans",
    "councilDistrict": "4",
    "policeDistrict": "NORTHERN",
    "Location 1": "5722 YORK RD\nBaltimore, MD"
  },
  {
    "name": "TAPAS TEATRO CAF",
    "zipCode": "21201",
    "neighborhood": "Charles North",
    "councilDistrict": "12",
    "policeDistrict": "CENTRAL",
    "Location 1": "1711 CHARLES ST\nBaltimore, MD"
  },
  {
    "name": "TASTE",
    "zipCode": "21212",
    "neighborhood": "Mid-Govans",
    "councilDistrict": "4",
    "policeDistrict": "NORTHERN",
    "Location 1": "510 BELVEDERE AVE\nBaltimore, MD"
  },
  {
    "name": "TASTE INTERNATIONAL RESTAURANT",
    "zipCode": "21226",
    "neighborhood": "Curtis Bay Industrial Area",
    "councilDistrict": "10",
    "policeDistrict": "SOUTHERN",
    "Location 1": "4314 CURTIS AVE\nBaltimore, MD"
  },
  {
    "name": "TASTE INTERNATIONAL RESTAURANT & LOUNGE/BAR",
    "zipCode": "-21226",
    "neighborhood": "Curtis Bay Industrial Area",
    "councilDistrict": "10",
    "policeDistrict": "SOUTHERN",
    "Location 1": "4314 CURTIS AVENUE\nBaltimore, MD"
  },
  {
    "name": "TAYLOR'S 5000 TAVERN",
    "zipCode": "21226",
    "neighborhood": "Curtis Bay",
    "councilDistrict": "10",
    "policeDistrict": "SOUTHERN",
    "Location 1": "5000 PENNINGTON AVE\nBaltimore, MD"
  },
  {
    "name": "TAYLORS EAST",
    "zipCode": "21213",
    "neighborhood": "Berea",
    "councilDistrict": "13",
    "policeDistrict": "EASTERN",
    "Location 1": "1201 POTOMAC ST\nBaltimore, MD"
  },
  {
    "name": "TEN-O-SIX",
    "zipCode": "21230",
    "neighborhood": "Federal Hill",
    "councilDistrict": "10",
    "policeDistrict": "SOUTHERN",
    "Location 1": "1006 LIGHT ST\nBaltimore, MD"
  },
  {
    "name": "TEQUILA SUNSET",
    "zipCode": "21217",
    "neighborhood": "Penn North",
    "councilDistrict": "7",
    "policeDistrict": "WESTERN",
    "Location 1": "2705 PENNSYLVANIA AVE\nBaltimore, MD"
  },
  {
    "name": "THAI  LANDING",
    "zipCode": "21201",
    "neighborhood": "Mid-Town Belvedere",
    "councilDistrict": "12",
    "policeDistrict": "CENTRAL",
    "Location 1": "1207 CHARLES ST\nBaltimore, MD"
  },
  {
    "name": "THAI ARROY RESTAURANT",
    "zipCode": "21230",
    "neighborhood": "Federal Hill",
    "councilDistrict": "10",
    "policeDistrict": "SOUTHERN",
    "Location 1": "1019 LIGHT ST\nBaltimore, MD"
  },
  {
    "name": "THAI RESTAURANT",
    "zipCode": "21218",
    "neighborhood": "Oakenshawe",
    "councilDistrict": "14",
    "policeDistrict": "NORTHERN",
    "Location 1": "3316 GREENMOUNT AVE\nBaltimore, MD"
  },
  {
    "name": "THE 8 x 10",
    "zipCode": "21230",
    "neighborhood": "Federal Hill",
    "councilDistrict": "10",
    "policeDistrict": "SOUTHERN",
    "Location 1": "10 CROSS ST\nBaltimore, MD"
  },
  {
    "name": "THE ADMIRAL'S CUP",
    "zipCode": "21231",
    "neighborhood": "Fells Point",
    "councilDistrict": "1",
    "policeDistrict": "SOUTHEASTERN",
    "Location 1": "1645 THAMES ST\nBaltimore, MD"
  },
  {
    "name": "THE AMERICAN LEGION",
    "zipCode": "21230",
    "neighborhood": "Morrell Park",
    "councilDistrict": "10",
    "policeDistrict": "SOUTHWESTERN",
    "Location 1": "1508 DESOTO RD\nBaltimore, MD"
  },
  {
    "name": "THE BALTIMORE SYMPHONY ORCHESTRA",
    "zipCode": "21202",
    "neighborhood": "Mid-Town Belvedere",
    "councilDistrict": "11",
    "policeDistrict": "CENTRAL",
    "Location 1": "1212 CATHEDRAL ST\nBaltimore, MD"
  },
  {
    "name": "THE BALTIMORE VETS ASSOC., INC. CHPT #451",
    "zipCode": "21224",
    "neighborhood": "Holabird Industrial Park",
    "councilDistrict": "1",
    "policeDistrict": "SOUTHEASTERN",
    "Location 1": "6401 BECKLEY ST\nBaltimore, MD"
  },
  {
    "name": "THE BICYCLE",
    "zipCode": "21230",
    "neighborhood": "SBIC",
    "councilDistrict": "10",
    "policeDistrict": "SOUTHERN",
    "Location 1": "1444 LIGHT ST\nBaltimore, MD"
  },
  {
    "name": "THE BISTRO",
    "zipCode": "21231",
    "neighborhood": "Fells Point",
    "councilDistrict": "1",
    "policeDistrict": "SOUTHEASTERN",
    "Location 1": "1718 LANCASTER ST\nBaltimore, MD"
  },
  {
    "name": "THE BRASS ELEPHANT",
    "zipCode": "21201",
    "neighborhood": "Mount Vernon",
    "councilDistrict": "11",
    "policeDistrict": "CENTRAL",
    "Location 1": "924 CHARLES ST\nBaltimore, MD"
  },
  {
    "name": "THE BREWER'S ART",
    "zipCode": "21201",
    "neighborhood": "Mid-Town Belvedere",
    "councilDistrict": "12",
    "policeDistrict": "CENTRAL",
    "Location 1": "1106 CHARLES ST\nBaltimore, MD"
  },
  {
    "name": "THE BROOKSHIRE  INNER  HARBOR  SUITE  HOTEL",
    "zipCode": "21202",
    "neighborhood": "Inner Harbor",
    "councilDistrict": "11",
    "policeDistrict": "CENTRAL",
    "Location 1": "120 LOMBARD ST\nBaltimore, MD"
  },
  {
    "name": "THE CANTON LIQUOR HOUSE",
    "zipCode": "21231",
    "neighborhood": "Fells Point",
    "councilDistrict": "1",
    "policeDistrict": "SOUTHEASTERN",
    "Location 1": "1822 FLEET ST\nBaltimore, MD"
  },
  {
    "name": "THE CAPITAL GRILLE",
    "zipCode": "21202",
    "neighborhood": "Inner Harbor",
    "councilDistrict": "11",
    "policeDistrict": "CENTRAL",
    "Location 1": "500 PRATT ST\nBaltimore, MD"
  },
  {
    "name": "THE CARIBBEAN AMERICAN HEAT",
    "zipCode": "21207",
    "neighborhood": "Howard Park",
    "councilDistrict": "5",
    "policeDistrict": "NORTHWESTERN",
    "Location 1": "4740 LIBERTY HEIGHTS AVE\nBaltimore, MD"
  },
  {
    "name": "THE CATS EYE PUB",
    "zipCode": "21231",
    "neighborhood": "Fells Point",
    "councilDistrict": "1",
    "policeDistrict": "SOUTHEASTERN",
    "Location 1": "1730 THAMES ST\nBaltimore, MD"
  },
  {
    "name": "The Chameleon Caf‚'",
    "zipCode": "21214",
    "neighborhood": "Lauraville",
    "councilDistrict": "3",
    "policeDistrict": "NORTHEASTERN",
    "Location 1": "4341 harford rd\nBaltimore, MD"
  },
  {
    "name": "THE CHEESECAKE  FACTORY",
    "zipCode": "21202",
    "neighborhood": "Inner Harbor",
    "councilDistrict": "11",
    "policeDistrict": "CENTRAL",
    "Location 1": "201 PRATT ST\nBaltimore, MD"
  },
  {
    "name": "THE CHINA DOLL",
    "zipCode": "21201",
    "neighborhood": "Downtown",
    "councilDistrict": "11",
    "policeDistrict": "CENTRAL",
    "Location 1": "406 PARK AVE\nBaltimore, MD"
  },
  {
    "name": "THE CRAB PIT",
    "zipCode": "21223",
    "neighborhood": "Gwynns Falls",
    "councilDistrict": "8",
    "policeDistrict": "SOUTHWESTERN",
    "Location 1": "2801 WILKENS AVE\nBaltimore, MD"
  },
  {
    "name": "THE DEN LLC",
    "zipCode": "21218",
    "neighborhood": "Charles Village",
    "councilDistrict": "14",
    "policeDistrict": "NORTHERN",
    "Location 1": "3327 ST PAUL ST\nBaltimore, MD"
  },
  {
    "name": "THE DEPOT",
    "zipCode": "21201",
    "neighborhood": "Charles North",
    "councilDistrict": "12",
    "policeDistrict": "CENTRAL",
    "Location 1": "1728 CHARLES ST\nBaltimore, MD"
  },
  {
    "name": "THE DRINKERY",
    "zipCode": "21201",
    "neighborhood": "Mount Vernon",
    "councilDistrict": "11",
    "policeDistrict": "CENTRAL",
    "Location 1": "203 READ ST\nBaltimore, MD"
  },
  {
    "name": "THE EDGE BAR & LOUNGE",
    "zipCode": "21213",
    "neighborhood": "Broadway East",
    "councilDistrict": "12",
    "policeDistrict": "EASTERN",
    "Location 1": "2015 FEDERAL ST\nBaltimore, MD"
  },
  {
    "name": "THE EDGE BAR & LOUNGE - KITCHEN AREA",
    "zipCode": "21213",
    "neighborhood": "Broadway East",
    "councilDistrict": "12",
    "policeDistrict": "EASTERN",
    "Location 1": "2015 FEDERAL ST\nBaltimore, MD"
  },
  {
    "name": "THE ENGINEER'S SOCIETY OF BALTIMORE",
    "zipCode": "21201",
    "neighborhood": "Mount Vernon",
    "councilDistrict": "11",
    "policeDistrict": "CENTRAL",
    "Location 1": "11 MOUNT VERNON PL\nBaltimore, MD"
  },
  {
    "name": "THE EVERGREEN",
    "zipCode": "21210",
    "neighborhood": "Roland Park",
    "councilDistrict": "6",
    "policeDistrict": "NORTHERN",
    "Location 1": "501 COLDSPRING LN\nBaltimore, MD"
  },
  {
    "name": "THE FAIRMOUNT INN",
    "zipCode": "21224",
    "neighborhood": "Baltimore Highlands",
    "councilDistrict": "1",
    "policeDistrict": "SOUTHEASTERN",
    "Location 1": "3537 FAIRMOUNT AVE\nBaltimore, MD"
  },
  {
    "name": "THE GARDENVILLE CLUB",
    "zipCode": "21206",
    "neighborhood": "Frankford",
    "councilDistrict": "2",
    "policeDistrict": "NORTHEASTERN",
    "Location 1": "5405 RADECKE AVE\nBaltimore, MD"
  },
  {
    "name": "THE GARRETT LOUNGE",
    "zipCode": "21218",
    "neighborhood": "Coldstream Homestead Montebello",
    "councilDistrict": "14",
    "policeDistrict": "NORTHEASTERN",
    "Location 1": "2510 GARRETT AVE\nBaltimore, MD"
  },
  {
    "name": "THE GENTLEMAN'S GOLD CLUB",
    "zipCode": "21205",
    "neighborhood": "Armistead Gardens",
    "councilDistrict": "2",
    "policeDistrict": "SOUTHEASTERN",
    "Location 1": "5801 PULASKI HWY\nBaltimore, MD"
  },
  {
    "name": "THE GIN  MILL",
    "zipCode": "21224",
    "neighborhood": "Canton",
    "councilDistrict": "1",
    "policeDistrict": "SOUTHEASTERN",
    "Location 1": "2300 BOSTON ST\nBaltimore, MD"
  },
  {
    "name": "THE GLASS GRILL",
    "zipCode": "21224",
    "neighborhood": "Eastwood",
    "councilDistrict": "2",
    "policeDistrict": "SOUTHEASTERN",
    "Location 1": "6804 EASTERN AVE\nBaltimore, MD"
  },
  {
    "name": "THE GODDESS",
    "zipCode": "21201",
    "neighborhood": "Downtown",
    "councilDistrict": "11",
    "policeDistrict": "CENTRAL",
    "Location 1": "36 EUTAW ST\nBaltimore, MD"
  },
  {
    "name": "THE GREENE TURTLE",
    "zipCode": "21231",
    "neighborhood": "Fells Point",
    "councilDistrict": "1",
    "policeDistrict": "SOUTHEASTERN",
    "Location 1": "722 BROADWAY\nBaltimore, MD"
  },
  {
    "name": "THE HOLLOW BAR & GRILL",
    "zipCode": "21212",
    "neighborhood": "Rosebank",
    "councilDistrict": "4",
    "policeDistrict": "NORTHERN",
    "Location 1": "5921 YORK RD\nBaltimore, MD"
  },
  {
    "name": "THE HORSE YOU CAME IN ON",
    "zipCode": "21231",
    "neighborhood": "Fells Point",
    "councilDistrict": "1",
    "policeDistrict": "SOUTHEASTERN",
    "Location 1": "1626 THAMES ST\nBaltimore, MD"
  },
  {
    "name": "THE HUBCAP INN",
    "zipCode": "21206",
    "neighborhood": "Cedmont",
    "councilDistrict": "2",
    "policeDistrict": "NORTHEASTERN",
    "Location 1": "6003 BELAIR RD\nBaltimore, MD"
  },
  {
    "name": "THE IBIS TAVERN",
    "zipCode": "21214",
    "neighborhood": "Westfield",
    "councilDistrict": "3",
    "policeDistrict": "NORTHEASTERN",
    "Location 1": "6016 HARFORD RD\nBaltimore, MD"
  },
  {
    "name": "THE INNER HARBOR MARINA OF BALTIMORE, INC.",
    "zipCode": "21230",
    "neighborhood": "Federal Hill",
    "councilDistrict": "11",
    "policeDistrict": "CENTRAL",
    "Location 1": "400 KEY HWY\nBaltimore, MD"
  },
  {
    "name": "THE LAUGHING PINT",
    "zipCode": "21224",
    "neighborhood": "Highlandtown",
    "councilDistrict": "1",
    "policeDistrict": "SOUTHEASTERN",
    "Location 1": "3531 GOUGH ST\nBaltimore, MD"
  },
  {
    "name": "THE LIFE OF REILLY IRISH PUB & RESTAURANT",
    "zipCode": "21231",
    "neighborhood": "Butcher's Hill",
    "councilDistrict": "1",
    "policeDistrict": "SOUTHEASTERN",
    "Location 1": "2031 FAIRMOUNT AVE\nBaltimore, MD"
  },
  {
    "name": "THE LODGE BAR",
    "zipCode": "21202",
    "neighborhood": "Downtown",
    "councilDistrict": "11",
    "policeDistrict": "CENTRAL",
    "Location 1": "10 MARKET PL\nBaltimore, MD"
  },
  {
    "name": "THE LOOP",
    "zipCode": "21229",
    "neighborhood": "Irvington",
    "councilDistrict": "8",
    "policeDistrict": "SOUTHWESTERN",
    "Location 1": "4238 FREDERICK AVE\nBaltimore, MD"
  },
  {
    "name": "THE MORNING EDITION CAFE",
    "zipCode": "21231",
    "neighborhood": "Patterson Place",
    "councilDistrict": "1",
    "policeDistrict": "SOUTHEASTERN",
    "Location 1": "153 PATTERSON PARK AVE\nBaltimore, MD"
  },
  {
    "name": "THE NEW 2 O'CLOCK CLUB",
    "zipCode": "21202",
    "neighborhood": "Downtown",
    "councilDistrict": "11",
    "policeDistrict": "CENTRAL",
    "Location 1": "414 BALTIMORE ST\nBaltimore, MD"
  },
  {
    "name": "THE NEW BUCKETT'S LOUNGE",
    "zipCode": "21213",
    "neighborhood": "Broadway East",
    "councilDistrict": "13",
    "policeDistrict": "EASTERN",
    "Location 1": "1432 CHESTER ST\nBaltimore, MD"
  },
  {
    "name": "THE NEW CASSELL (KITCHEN AREA)",
    "zipCode": "21224",
    "neighborhood": "Baltimore-Linwood",
    "councilDistrict": "1",
    "policeDistrict": "SOUTHEASTERN",
    "Location 1": "1 CURLEY ST\nBaltimore, MD"
  },
  {
    "name": "THE NEW CASSELL'S",
    "zipCode": "21224",
    "neighborhood": "Baltimore-Linwood",
    "councilDistrict": "1",
    "policeDistrict": "SOUTHEASTERN",
    "Location 1": "1 CURLEY ST\nBaltimore, MD"
  },
  {
    "name": "THE NEW HAVEN LOUNGE",
    "zipCode": "21218",
    "neighborhood": "Hillen",
    "councilDistrict": "3",
    "policeDistrict": "NORTHEASTERN",
    "Location 1": "1552 HAVENWOOD RD\nBaltimore, MD"
  },
  {
    "name": "THE NEW WYMAN PARK RESTAURANT",
    "zipCode": "21218",
    "neighborhood": "Charles Village",
    "councilDistrict": "7",
    "policeDistrict": "NORTHERN",
    "Location 1": "138 25TH ST\nBaltimore, MD"
  },
  {
    "name": "THE NORTHEAST TAVERN",
    "zipCode": "21214",
    "neighborhood": "Westfield",
    "councilDistrict": "3",
    "policeDistrict": "NORTHEASTERN",
    "Location 1": "6016 HARFORD RD\nBaltimore, MD"
  },
  {
    "name": "THE OCEANAIRE SEAFOOD ROOM",
    "zipCode": "21202",
    "neighborhood": "Inner Harbor",
    "councilDistrict": "1",
    "policeDistrict": "SOUTHEASTERN",
    "Location 1": "801 ALICEANNA ST\nBaltimore, MD"
  },
  {
    "name": "THE OPPOSITE SIDEWALK SALOON",
    "zipCode": "21223",
    "neighborhood": "Hollins Market",
    "councilDistrict": "9",
    "policeDistrict": "SOUTHERN",
    "Location 1": "132 CAREY ST\nBaltimore, MD"
  },
  {
    "name": "THE PLACE",
    "zipCode": "21201",
    "neighborhood": "Downtown",
    "councilDistrict": "11",
    "policeDistrict": "CENTRAL",
    "Location 1": "315 FRANKLIN ST\nBaltimore, MD"
  },
  {
    "name": "THE PREAKNESS LOUNGE",
    "zipCode": "21215",
    "neighborhood": "Greenspring",
    "councilDistrict": "6",
    "policeDistrict": "NORTHERN",
    "Location 1": "4103 PIMLICO RD\nBaltimore, MD"
  },
  {
    "name": "THE PRIME RIB, INCORPORATED",
    "zipCode": "21202",
    "neighborhood": "Mid-Town Belvedere",
    "councilDistrict": "12",
    "policeDistrict": "CENTRAL",
    "Location 1": "1101 CALVERT ST\nBaltimore, MD"
  },
  {
    "name": "THE QUEST",
    "zipCode": "21224",
    "neighborhood": "Brewers Hill",
    "councilDistrict": "1",
    "policeDistrict": "SOUTHEASTERN",
    "Location 1": "3607 FLEET ST\nBaltimore, MD"
  },
  {
    "name": "THE RED STAR BAR & GRILL",
    "zipCode": "21231",
    "neighborhood": "Fells Point",
    "councilDistrict": "1",
    "policeDistrict": "SOUTHEASTERN",
    "Location 1": "906 WOLFE ST\nBaltimore, MD"
  },
  {
    "name": "THE ROWAN TREE",
    "zipCode": "21230",
    "neighborhood": "SBIC",
    "councilDistrict": "10",
    "policeDistrict": "SOUTHERN",
    "Location 1": "1633 CHARLES ST\nBaltimore, MD"
  },
  {
    "name": "THE SHAMROCK INN",
    "zipCode": "21214",
    "neighborhood": "Westfield",
    "councilDistrict": "3",
    "policeDistrict": "NORTHEASTERN",
    "Location 1": "6044 HARFORD RD\nBaltimore, MD"
  },
  {
    "name": "THE WALTERS ART GALLERY",
    "zipCode": "21201",
    "neighborhood": "Otterbein",
    "councilDistrict": "11",
    "policeDistrict": "SOUTHERN",
    "Location 1": "600 CHARLES ST\nBaltimore, MD"
  },
  {
    "name": "THE WATERFRONT HOTEL",
    "zipCode": "21231",
    "neighborhood": "Fells Point",
    "councilDistrict": "1",
    "policeDistrict": "SOUTHEASTERN",
    "Location 1": "1710 THAMES ST\nBaltimore, MD"
  },
  {
    "name": "THE WHARF RAT CAMDEN YARDS",
    "zipCode": "21201",
    "neighborhood": "Inner Harbor",
    "councilDistrict": "11",
    "policeDistrict": "CENTRAL",
    "Location 1": "206 PRATT ST\nBaltimore, MD"
  },
  {
    "name": "THE WHISPERING WIND, LLC",
    "zipCode": "21224",
    "neighborhood": "Baltimore-Linwood",
    "councilDistrict": "1",
    "policeDistrict": "SOUTHEASTERN",
    "Location 1": "2711 FAYETTE ST\nBaltimore, MD"
  },
  {
    "name": "THE WINE MARKET (SUITE 135)",
    "zipCode": "21230",
    "neighborhood": "Riverside",
    "councilDistrict": "10",
    "policeDistrict": "SOUTHERN",
    "Location 1": "921 FORT AVE\nBaltimore, MD"
  },
  {
    "name": "THE YABBA POT",
    "zipCode": "21218",
    "neighborhood": "Charles Village",
    "councilDistrict": "12",
    "policeDistrict": "NORTHERN",
    "Location 1": "2433 ST PAUL ST\nBaltimore, MD"
  },
  {
    "name": "THIRSTY'S II",
    "zipCode": "21206",
    "neighborhood": "Cedmont",
    "councilDistrict": "2",
    "policeDistrict": "NORTHEASTERN",
    "Location 1": "6037 BELAIR RD\nBaltimore, MD"
  },
  {
    "name": "THORNTON'S PUB",
    "zipCode": "21230",
    "neighborhood": "Locust Point",
    "councilDistrict": "10",
    "policeDistrict": "SOUTHERN",
    "Location 1": "1538 CLEMENT ST\nBaltimore, MD"
  },
  {
    "name": "THREE  ACE'S",
    "zipCode": "21213",
    "neighborhood": "Belair-Edison",
    "councilDistrict": "3",
    "policeDistrict": "NORTHEASTERN",
    "Location 1": "3534 belair RD\nBaltimore, MD"
  },
  {
    "name": "THREE KINGS OF EGYPT",
    "zipCode": "21230",
    "neighborhood": "Federal Hill",
    "councilDistrict": "10",
    "policeDistrict": "SOUTHERN",
    "Location 1": "1027 LIGHT ST\nBaltimore, MD"
  },
  {
    "name": "THUMPER'S",
    "zipCode": "21226",
    "neighborhood": "Curtis Bay Industrial Area",
    "councilDistrict": "10",
    "policeDistrict": "SOUTHERN",
    "Location 1": "4600 CURTIS AVE\nBaltimore, MD"
  },
  {
    "name": "TIBURZI'S CAF LLC",
    "zipCode": "21224",
    "neighborhood": "Canton",
    "councilDistrict": "1",
    "policeDistrict": "SOUTHEASTERN",
    "Location 1": "900 KENWOOD AVE\nBaltimore, MD"
  },
  {
    "name": "TIJUANA TACOS & DELI",
    "zipCode": "21231",
    "neighborhood": "Canton",
    "councilDistrict": "1",
    "policeDistrict": "SOUTHEASTERN",
    "Location 1": "2224 FLEET ST\nBaltimore, MD"
  },
  {
    "name": "TIME CAF",
    "zipCode": "21230",
    "neighborhood": "Riverside",
    "councilDistrict": "10",
    "policeDistrict": "SOUTHERN",
    "Location 1": "1107 LIGHT ST\nBaltimore, MD"
  },
  {
    "name": "TIMOTHY DEAN BISTRO",
    "zipCode": "21231",
    "neighborhood": "Upper Fells Point",
    "councilDistrict": "1",
    "policeDistrict": "SOUTHEASTERN",
    "Location 1": "1717 EASTERN AVE\nBaltimore, MD"
  },
  {
    "name": "TIO PEPE RESTAURANTE",
    "zipCode": "21202",
    "neighborhood": "Mount Vernon",
    "councilDistrict": "11",
    "policeDistrict": "CENTRAL",
    "Location 1": "10 FRANKLIN ST\nBaltimore, MD"
  },
  {
    "name": "TIR NA NOG BAR & GRILL",
    "zipCode": "21202",
    "neighborhood": "Inner Harbor",
    "councilDistrict": "11",
    "policeDistrict": "CENTRAL",
    "Location 1": "201 PRATT ST\nBaltimore, MD"
  },
  {
    "name": "TODD CONNERS",
    "zipCode": "21231",
    "neighborhood": "Fells Point",
    "councilDistrict": "1",
    "policeDistrict": "SOUTHEASTERN",
    "Location 1": "700 BROADWAY\nBaltimore, MD"
  },
  {
    "name": "TOM & OLIVE'S CAFE",
    "zipCode": "21205",
    "neighborhood": "Madison-Eastend",
    "councilDistrict": "13",
    "policeDistrict": "EASTERN",
    "Location 1": "2942 MONUMENT ST\nBaltimore, MD"
  },
  {
    "name": "TOMMY'S LOUNGE",
    "zipCode": "21224",
    "neighborhood": "Highlandtown",
    "councilDistrict": "2",
    "policeDistrict": "SOUTHEASTERN",
    "Location 1": "200 CONKLING ST\nBaltimore, MD"
  },
  {
    "name": "TOM'S BAR",
    "zipCode": "21224",
    "neighborhood": "Greektown",
    "councilDistrict": "2",
    "policeDistrict": "SOUTHEASTERN",
    "Location 1": "4719 EASTERN AVE\nBaltimore, MD"
  },
  {
    "name": "TONY'S PLACE",
    "zipCode": "21218",
    "neighborhood": "Waverly",
    "councilDistrict": "14",
    "policeDistrict": "NORTHERN",
    "Location 1": "3801 OLD YORK RD\nBaltimore, MD"
  },
  {
    "name": "TORAIN'S  HIDE-A-WAY",
    "zipCode": "21213",
    "neighborhood": "Broadway East",
    "councilDistrict": "12",
    "policeDistrict": "EASTERN",
    "Location 1": "1701 ELLSWORTH ST\nBaltimore, MD"
  },
  {
    "name": "TOWER TERRACE RESTAURANT",
    "zipCode": "21205",
    "neighborhood": "Dunbar-Broadway",
    "councilDistrict": "13",
    "policeDistrict": "EASTERN",
    "Location 1": "600 WOLFE ST\nBaltimore, MD"
  },
  {
    "name": "TRACEY'S  LOUNGE",
    "zipCode": "21224",
    "neighborhood": "Greektown",
    "councilDistrict": "2",
    "policeDistrict": "SOUTHEASTERN",
    "Location 1": "301 MACON ST\nBaltimore, MD"
  },
  {
    "name": "TRAVELERS LOUNGE",
    "zipCode": "21224",
    "neighborhood": "Holabird Industrial Park",
    "councilDistrict": "1",
    "policeDistrict": "SOUTHEASTERN",
    "Location 1": "6500 HOLABIRD AVE\nBaltimore, MD"
  },
  {
    "name": "TREMONT GRAND CAF",
    "zipCode": "21202",
    "neighborhood": "Downtown",
    "councilDistrict": "11",
    "policeDistrict": "CENTRAL",
    "Location 1": "225 CHARLES ST\nBaltimore, MD"
  },
  {
    "name": "TREMONT HOTEL/8 EAST RESTAURANT",
    "zipCode": "21202",
    "neighborhood": "Downtown",
    "councilDistrict": "11",
    "policeDistrict": "CENTRAL",
    "Location 1": "8 PLEASANT ST\nBaltimore, MD"
  },
  {
    "name": "TREMONT PLAZA DELI",
    "zipCode": "21202",
    "neighborhood": "Downtown",
    "councilDistrict": "11",
    "policeDistrict": "CENTRAL",
    "Location 1": "222 ST PAUL PL\nBaltimore, MD"
  },
  {
    "name": "TREMPER INC.",
    "zipCode": "21224",
    "neighborhood": "Canton",
    "councilDistrict": "1",
    "policeDistrict": "SOUTHEASTERN",
    "Location 1": "3242 FOSTER AVE\nBaltimore, MD"
  },
  {
    "name": "TRINIDAD ASSOCIATES",
    "zipCode": "21215",
    "neighborhood": "Arlington",
    "councilDistrict": "5",
    "policeDistrict": "NORTHWESTERN",
    "Location 1": "5402 PARK HEIGHTS AVE\nBaltimore, MD"
  },
  {
    "name": "TRIP PLACE",
    "zipCode": "21201",
    "neighborhood": "Charles North",
    "councilDistrict": "12",
    "policeDistrict": "CENTRAL",
    "Location 1": "1813 CHARLES ST\nBaltimore, MD"
  },
  {
    "name": "TROPICAL TASTE RESTAURANT",
    "zipCode": "21215",
    "neighborhood": "Woodmere",
    "councilDistrict": "6",
    "policeDistrict": "NORTHWESTERN",
    "Location 1": "5205 REISTERSTOWN RD\nBaltimore, MD"
  },
  {
    "name": "TRUFFLES & TEA",
    "zipCode": "21210",
    "neighborhood": "Cross Keys",
    "councilDistrict": "6",
    "policeDistrict": "NORTHERN",
    "Location 1": "5100 FALLS RD\nBaltimore, MD"
  },
  {
    "name": "TRUST CHINESE RESTAURANT",
    "zipCode": "21230",
    "neighborhood": "Washington Village",
    "councilDistrict": "11",
    "policeDistrict": "SOUTHERN",
    "Location 1": "758 WASHINGTON BLVD\nBaltimore, MD"
  },
  {
    "name": "TSUNAMI BALTIMORE",
    "zipCode": "21213",
    "neighborhood": "Little Italy",
    "councilDistrict": "1",
    "policeDistrict": "SOUTHEASTERN",
    "Location 1": "1300 BANK ST\nBaltimore, MD"
  },
  {
    "name": "TUG'S RESTAURANT-TREMONT PLAZA HOTEL",
    "zipCode": "21202",
    "neighborhood": "Downtown",
    "councilDistrict": "11",
    "policeDistrict": "CENTRAL",
    "Location 1": "222 ST PAUL PL\nBaltimore, MD"
  },
  {
    "name": "TURF BAR & LOUNGE",
    "zipCode": "21201",
    "neighborhood": "Downtown",
    "councilDistrict": "11",
    "policeDistrict": "CENTRAL",
    "Location 1": "226 FAYETTE ST\nBaltimore, MD"
  },
  {
    "name": "TURNER'S CAFE",
    "zipCode": "21230",
    "neighborhood": "Federal Hill",
    "councilDistrict": "10",
    "policeDistrict": "SOUTHERN",
    "Location 1": "12 CROSS st\nBaltimore, MD"
  },
  {
    "name": "TURNTABLE LIMITED",
    "zipCode": "21205",
    "neighborhood": "Middle East",
    "councilDistrict": "13",
    "policeDistrict": "EASTERN",
    "Location 1": "2139 JEFFERSON ST\nBaltimore, MD"
  },
  {
    "name": "TWINS SUBWAY",
    "zipCode": "21201",
    "neighborhood": "Downtown",
    "councilDistrict": "11",
    "policeDistrict": "CENTRAL",
    "Location 1": "1 HOWARD ST\nBaltimore, MD"
  },
  {
    "name": "TWO SISTERS GRILLE",
    "zipCode": "21218",
    "neighborhood": "Charles Village",
    "councilDistrict": "7",
    "policeDistrict": "NORTHERN",
    "Location 1": "127 27TH ST\nBaltimore, MD"
  },
  {
    "name": "TYSON PLACE, INC.  ( A.K.A 227 W CHASE ST)",
    "zipCode": "21201",
    "neighborhood": "Mid-Town Belvedere",
    "councilDistrict": "11",
    "policeDistrict": "CENTRAL",
    "Location 1": "870 PARK AVE\nBaltimore, MD"
  },
  {
    "name": "Tyson's Tavern",
    "zipCode": "21231",
    "neighborhood": "Canton",
    "councilDistrict": "1",
    "policeDistrict": "SOUTHEASTERN",
    "Location 1": "2112 FLEET ST\nBaltimore, MD"
  },
  {
    "name": "TYSON'S TAVERN",
    "zipCode": "21231",
    "neighborhood": "Canton",
    "councilDistrict": "1",
    "policeDistrict": "SOUTHEASTERN",
    "Location 1": "2112 FLEET ST\nBaltimore, MD"
  },
  {
    "name": "UNCLE LEE'S AT THE HARBOR",
    "zipCode": "21202",
    "neighborhood": "Downtown",
    "councilDistrict": "11",
    "policeDistrict": "CENTRAL",
    "Location 1": "44 SOUTH ST\nBaltimore, MD"
  },
  {
    "name": "UNCLE WALT'S PLACE",
    "zipCode": "21230",
    "neighborhood": "Morrell Park",
    "councilDistrict": "10",
    "policeDistrict": "SOUTHWESTERN",
    "Location 1": "2351 WASHINGTON BLVD\nBaltimore, MD"
  },
  {
    "name": "UNION HOLDING COMPANY",
    "zipCode": "21224",
    "neighborhood": "Pulaski Industrial Area",
    "councilDistrict": "1",
    "policeDistrict": "SOUTHEASTERN",
    "Location 1": "550 DUNDALK AVE\nBaltimore, MD"
  },
  {
    "name": "UNITED AUTO WORKERS HOLDING COMPANY",
    "zipCode": "21224",
    "neighborhood": "Greektown",
    "councilDistrict": "1",
    "policeDistrict": "SOUTHEASTERN",
    "Location 1": "1010 OLDHAM ST\nBaltimore, MD"
  },
  {
    "name": "UNIVERSAL SOCIAL CLUB",
    "zipCode": "21205",
    "neighborhood": "Middle East",
    "councilDistrict": "13",
    "policeDistrict": "EASTERN",
    "Location 1": "2253 MC ELDERRY ST\nBaltimore, MD"
  },
  {
    "name": "UPPER DECK",
    "zipCode": "21201",
    "neighborhood": "Downtown",
    "councilDistrict": "11",
    "policeDistrict": "CENTRAL",
    "Location 1": "34 eutaw st\nBaltimore, MD"
  },
  {
    "name": "V I P CITY  (1833-35)",
    "zipCode": "21223",
    "neighborhood": "Carrollton Ridge",
    "councilDistrict": "9",
    "policeDistrict": "SOUTHERN",
    "Location 1": "1833 PRATT ST\nBaltimore, MD"
  },
  {
    "name": "v.f.w. post 2916",
    "zipCode": "21225",
    "neighborhood": "Brooklyn",
    "councilDistrict": "10",
    "policeDistrict": "SOUTHERN",
    "Location 1": "601 patapsco ave\nBaltimore, MD"
  },
  {
    "name": "VACCARO'S ITALIAN PASTRY SHOP, INC.",
    "zipCode": "21202",
    "neighborhood": "Little Italy",
    "councilDistrict": "1",
    "policeDistrict": "SOUTHEASTERN",
    "Location 1": "222 ALBEMARLE ST\nBaltimore, MD"
  },
  {
    "name": "VALENTINO'S RESTAURANT,INC",
    "zipCode": "21214",
    "neighborhood": "Westfield",
    "councilDistrict": "3",
    "policeDistrict": "NORTHEASTERN",
    "Location 1": "6627 HARFORD RD\nBaltimore, MD"
  },
  {
    "name": "VELLEGGIA'S ITALIAN SEAFOOD RESTAURANT",
    "zipCode": "21202",
    "neighborhood": "Little Italy",
    "councilDistrict": "1",
    "policeDistrict": "SOUTHEASTERN",
    "Location 1": "204 HIGH ST\nBaltimore, MD"
  },
  {
    "name": "VENICE TAVERN",
    "zipCode": "21224",
    "neighborhood": "Highlandtown",
    "councilDistrict": "1",
    "policeDistrict": "SOUTHEASTERN",
    "Location 1": "339 CONKLING ST\nBaltimore, MD"
  },
  {
    "name": "VENUS PIZZERIA, INC.",
    "zipCode": "21218",
    "neighborhood": "Guilford",
    "councilDistrict": "14",
    "policeDistrict": "NORTHERN",
    "Location 1": "3713 GREENMOUNT AVE\nBaltimore, MD"
  },
  {
    "name": "VERNELL'S ICE PARADISE",
    "zipCode": "21217",
    "neighborhood": "Sandtown-Winchester",
    "councilDistrict": "9",
    "policeDistrict": "WESTERN",
    "Location 1": "1135 MONROE ST\nBaltimore, MD"
  },
  {
    "name": "VFW POST #8509  - DONALD CRUMBLE,TRUSTEE",
    "zipCode": "21202",
    "neighborhood": "Greenmount West",
    "councilDistrict": "12",
    "policeDistrict": "EASTERN",
    "Location 1": "335 NORTH AVE\nBaltimore, MD"
  },
  {
    "name": "VIEN BENIDOS LOS CATRACHOS",
    "zipCode": "21224",
    "neighborhood": "Greektown",
    "councilDistrict": "1",
    "policeDistrict": "SOUTHEASTERN",
    "Location 1": "5101 EASTERN AVE\nBaltimore, MD"
  },
  {
    "name": "VINNY'S  CAFE",
    "zipCode": "21224",
    "neighborhood": "Broening Manor",
    "councilDistrict": "1",
    "policeDistrict": "SOUTHEASTERN",
    "Location 1": "6212 HOLABIRD AVE\nBaltimore, MD"
  },
  {
    "name": "VISION BAR & TAVERN",
    "zipCode": "21224",
    "neighborhood": "Kresson",
    "councilDistrict": "2",
    "policeDistrict": "SOUTHEASTERN",
    "Location 1": "110 HAVEN ST\nBaltimore, MD"
  },
  {
    "name": "VITO'S PIZZA",
    "zipCode": "21212",
    "neighborhood": "Cedarcroft",
    "councilDistrict": "4",
    "policeDistrict": "NORTHERN",
    "Location 1": "6304 YORK RD\nBaltimore, MD"
  },
  {
    "name": "VULCAN BLAZERS, INC OF BALTIMORE CITY",
    "zipCode": "21215",
    "neighborhood": "Liberty Square",
    "councilDistrict": "7",
    "policeDistrict": "NORTHWESTERN",
    "Location 1": "2811 DRUID PARK DR\nBaltimore, MD"
  },
  {
    "name": "WAGON WHEEL INN",
    "zipCode": "21237",
    "neighborhood": "Pulaski Industrial Area",
    "councilDistrict": "2",
    "policeDistrict": "SOUTHEASTERN",
    "Location 1": "823 POINT RD\nBaltimore, MD"
  },
  {
    "name": "WALT'S INN",
    "zipCode": "21224",
    "neighborhood": "Canton",
    "councilDistrict": "1",
    "policeDistrict": "SOUTHEASTERN",
    "Location 1": "3201 O DONNELL ST\nBaltimore, MD"
  },
  {
    "name": "WAVERLY SOCIAL PLEASURE CLUB",
    "zipCode": "21218",
    "neighborhood": "Better Waverly",
    "councilDistrict": "14",
    "policeDistrict": "NORTHERN",
    "Location 1": "920 3OTH ST\nBaltimore, MD"
  },
  {
    "name": "WEIDOG",
    "zipCode": "21222",
    "neighborhood": "Graceland Park",
    "councilDistrict": "1",
    "policeDistrict": "SOUTHEASTERN",
    "Location 1": "6700 GERMAN HILL RD\nBaltimore, MD"
  },
  {
    "name": "WENDY'S",
    "zipCode": "21223",
    "neighborhood": "Millhill",
    "councilDistrict": "9",
    "policeDistrict": "SOUTHWESTERN",
    "Location 1": "2339 FREDERICK AVE\nBaltimore, MD"
  },
  {
    "name": "WENDY'S",
    "zipCode": "21215",
    "neighborhood": "Reisterstown Station",
    "councilDistrict": "5",
    "policeDistrict": "NORTHWESTERN",
    "Location 1": "4200 PATTERSON AVE\nBaltimore, MD"
  },
  {
    "name": "WENDY'S  RESTAURANT",
    "zipCode": "21201",
    "neighborhood": "Upton",
    "councilDistrict": "11",
    "policeDistrict": "CENTRAL",
    "Location 1": "901 McCulloh\nBaltimore, MD"
  },
  {
    "name": "WENDY'S #166",
    "zipCode": "21224",
    "neighborhood": "Joseph Lee",
    "councilDistrict": "2",
    "policeDistrict": "SOUTHEASTERN",
    "Location 1": "6411 EASTERN AVE\nBaltimore, MD"
  },
  {
    "name": "WENDY'S #87",
    "zipCode": "21218",
    "neighborhood": "East Baltimore Midway",
    "councilDistrict": "12",
    "policeDistrict": "EASTERN",
    "Location 1": "2045 HARFORD RD\nBaltimore, MD"
  },
  {
    "name": "WENDY'S OLD FASHIONED HAMBURGERS #96",
    "zipCode": "21212",
    "neighborhood": "Homeland",
    "councilDistrict": "4",
    "policeDistrict": "NORTHERN",
    "Location 1": "5615 YORK RD\nBaltimore, MD"
  },
  {
    "name": "WENDY'S RESTAURANT",
    "zipCode": "21215",
    "neighborhood": "Grove Park",
    "councilDistrict": "5",
    "policeDistrict": "NORTHWESTERN",
    "Location 1": "4410 NORTHERN PKWY\nBaltimore, MD"
  },
  {
    "name": "WERNER'S RESTAURANT",
    "zipCode": "21202",
    "neighborhood": "Downtown",
    "councilDistrict": "11",
    "policeDistrict": "CENTRAL",
    "Location 1": "231 REDWOOD ST\nBaltimore, MD"
  },
  {
    "name": "WESTSIDE INN",
    "zipCode": "21223",
    "neighborhood": "Carrollton Ridge",
    "councilDistrict": "9",
    "policeDistrict": "SOUTHWESTERN",
    "Location 1": "328 BENTALOU ST\nBaltimore, MD"
  },
  {
    "name": "WHISPERS",
    "zipCode": "21217",
    "neighborhood": "Sandtown-Winchester",
    "councilDistrict": "7",
    "policeDistrict": "WESTERN",
    "Location 1": "1811 BAKER ST\nBaltimore, MD"
  },
  {
    "name": "WHISTLING OYSTER",
    "zipCode": "21231",
    "neighborhood": "Fells Point",
    "councilDistrict": "1",
    "policeDistrict": "SOUTHEASTERN",
    "Location 1": "807 BROADWAY\nBaltimore, MD"
  },
  {
    "name": "WHITTEN'S  (4502-04)",
    "zipCode": "21213",
    "neighborhood": "Claremont-Freedom",
    "councilDistrict": "13",
    "policeDistrict": "NORTHEASTERN",
    "Location 1": "4502 ERDMAN AVE\nBaltimore, MD"
  },
  {
    "name": "WHITTEN'S II",
    "zipCode": "21206",
    "neighborhood": "Frankford",
    "councilDistrict": "2",
    "policeDistrict": "NORTHEASTERN",
    "Location 1": "5307 BELAIR RD\nBaltimore, MD"
  },
  {
    "name": "WILSON'S",
    "zipCode": "21214",
    "neighborhood": "Lauraville",
    "councilDistrict": "3",
    "policeDistrict": "NORTHEASTERN",
    "Location 1": "4537 HARFORD RD\nBaltimore, MD"
  },
  {
    "name": "WINDMILL/ MILOS",
    "zipCode": "21224",
    "neighborhood": "Greektown",
    "councilDistrict": "2",
    "policeDistrict": "SOUTHEASTERN",
    "Location 1": "4617 EASTERN AVE\nBaltimore, MD"
  },
  {
    "name": "WINKS HILLTOP GRILL",
    "zipCode": "21224",
    "neighborhood": "Canton",
    "councilDistrict": "1",
    "policeDistrict": "SOUTHEASTERN",
    "Location 1": "834 CONKLING ST\nBaltimore, MD"
  },
  {
    "name": "WINSTON LOUNGE",
    "zipCode": "21205",
    "neighborhood": "McElderry Park",
    "councilDistrict": "13",
    "policeDistrict": "EASTERN",
    "Location 1": "2343 MONUMENT ST\nBaltimore, MD"
  },
  {
    "name": "WOODBERRY KITCHEN",
    "zipCode": "21211",
    "neighborhood": "Woodberry",
    "councilDistrict": "7",
    "policeDistrict": "NORTHERN",
    "Location 1": "2010 CLIPPER PARK RD\nBaltimore, MD"
  },
  {
    "name": "WOODEN NICKLE LOUNGE",
    "zipCode": "21218",
    "neighborhood": "East Baltimore Midway",
    "councilDistrict": "12",
    "policeDistrict": "EASTERN",
    "Location 1": "2215 KIRK AVE\nBaltimore, MD"
  },
  {
    "name": "wozi lounge",
    "zipCode": "21212",
    "neighborhood": "Guilford",
    "councilDistrict": "4",
    "policeDistrict": "NORTHERN",
    "Location 1": "4515 YORK RD\nBaltimore, MD"
  },
  {
    "name": "WYLIE  LIQUORS (3101-03)",
    "zipCode": "21215",
    "neighborhood": "Central Park Heights",
    "councilDistrict": "6",
    "policeDistrict": "NORTHWESTERN",
    "Location 1": "3101 WYLIE AVE\nBaltimore, MD"
  },
  {
    "name": "XANADU",
    "zipCode": "21202",
    "neighborhood": "Downtown",
    "councilDistrict": "11",
    "policeDistrict": "CENTRAL",
    "Location 1": "10 CALVERT ST\nBaltimore, MD"
  },
  {
    "name": "XS",
    "zipCode": "21201",
    "neighborhood": "Mid-Town Belvedere",
    "councilDistrict": "12",
    "policeDistrict": "CENTRAL",
    "Location 1": "1307 CHARLES ST\nBaltimore, MD"
  },
  {
    "name": "YELLOW BOWL CAF",
    "zipCode": "21201",
    "neighborhood": "Johnston Square",
    "councilDistrict": "12",
    "policeDistrict": "EASTERN",
    "Location 1": "1234 GREENMOUNT AVE\nBaltimore, MD"
  },
  {
    "name": "YELLOW BOWL RESTAURANT II",
    "zipCode": "21215",
    "neighborhood": "Central Park Heights",
    "councilDistrict": "6",
    "policeDistrict": "NORTHWESTERN",
    "Location 1": "5131 PARK HEIGHTS AVE\nBaltimore, MD"
  },
  {
    "name": "YELLOW DOG TAVERN",
    "zipCode": "21224",
    "neighborhood": "Canton",
    "councilDistrict": "1",
    "policeDistrict": "SOUTHEASTERN",
    "Location 1": "700 POTOMAC ST\nBaltimore, MD"
  },
  {
    "name": "YETI RESTAURANT & CARRYOUT",
    "zipCode": "21212",
    "neighborhood": "Rosebank",
    "councilDistrict": "4",
    "policeDistrict": "NORTHERN",
    "Location 1": "5926 YORK RD\nBaltimore, MD"
  },
  {
    "name": "YORK CLUB TAVERN",
    "zipCode": "21212",
    "neighborhood": "Homeland",
    "councilDistrict": "4",
    "policeDistrict": "NORTHERN",
    "Location 1": "5407 YORK RD\nBaltimore, MD"
  },
  {
    "name": "YOUNG'S PLACE",
    "zipCode": "21231",
    "neighborhood": "Middle East",
    "councilDistrict": "13",
    "policeDistrict": "SOUTHEASTERN",
    "Location 1": "2200 FAYETTE ST\nBaltimore, MD"
  },
  {
    "name": "ZEEBA LOUNGE",
    "zipCode": "21230",
    "neighborhood": "Federal Hill",
    "councilDistrict": "10",
    "policeDistrict": "SOUTHERN",
    "Location 1": "916 LIGHT ST\nBaltimore, MD"
  },
  {
    "name": "ZEN WEST ROADSIDE CANTINA",
    "zipCode": "21212",
    "neighborhood": "Rosebank",
    "councilDistrict": "4",
    "policeDistrict": "NORTHERN",
    "Location 1": "5916 YORK RD\nBaltimore, MD"
  },
  {
    "name": "ZIASCOS",
    "zipCode": "21231",
    "neighborhood": "Washington Hill",
    "councilDistrict": "1",
    "policeDistrict": "SOUTHEASTERN",
    "Location 1": "1313 PRATT ST\nBaltimore, MD"
  },
  {
    "name": "ZINK'S CAF",
    "zipCode": "21213",
    "neighborhood": "Belair-Edison",
    "councilDistrict": "13",
    "policeDistrict": "NORTHEASTERN",
    "Location 1": "3300 LAWNVIEW AVE\nBaltimore, MD"
  },
  {
    "name": "ZISSIMOS BAR",
    "zipCode": "21211",
    "neighborhood": "Hampden",
    "councilDistrict": "7",
    "policeDistrict": "NORTHERN",
    "Location 1": "1023 36TH ST\nBaltimore, MD"
  }
]